[{"OBJECT_NAME":"STARLINK-36923","OBJECT_ID":"2026-040B","EPOCH":"2026-03-19T06:00:02.000160","MEAN_MOTION":15.81185323,"ECCENTRICITY":7.232e-5,"INCLINATION":97.2757,"RA_OF_ASC_NODE":27.1561,"ARG_OF_PERICENTER":120.7559,"MEAN_ANOMALY":96.7831,"EPHEMERIS_TYPE":0,"CLASSIFICATION_TYPE":"U","NORAD_CAT_ID":68016,"ELEMENT_SET_NO":999,"REV_AT_EPOCH":396,"BSTAR":-0.006699987,"MEAN_MOTION_DOT":-0.0116561,"MEAN_MOTION_DDOT":0},{"OBJECT_NAME":"STARLINK-36568","OBJECT_ID":"2026-040C","EPOCH":"2026-03-19T16:00:01.999584","MEAN_MOTION":15.79899029,"ECCENTRICITY":0.0001203,"INCLINATION":97.2779,"RA_OF_ASC_NODE":27.5993,"ARG_OF_PERICENTER":73.9538,"MEAN_ANOMALY":357.1893,"EPHEMERIS_TYPE":0,"CLASSIFICATION_TYPE":"U","NORAD_CAT_ID":68017,"ELEMENT_SET_NO":999,"REV_AT_EPOCH":403,"BSTAR":-0.012149,"MEAN_MOTION_DOT":-0.01943,"MEAN_MOTION_DDOT":0},{"OBJECT_NAME":"STARLINK-36930","OBJECT_ID":"2026-040D","EPOCH":"2026-03-19T16:00:01.999584","MEAN_MOTION":15.79986778,"ECCENTRICITY":0.0001484,"INCLINATION":97.2777,"RA_OF_ASC_NODE":27.5959,"ARG_OF_PERICENTER":93.9192,"MEAN_ANOMALY":328.7949,"EPHEMERIS_TYPE":0,"CLASSIFICATION_TYPE":"U","NORAD_CAT_ID":68018,"ELEMENT_SET_NO":999,"REV_AT_EPOCH":403,"BSTAR":-0.011976,"MEAN_MOTION_DOT":-0.01926008,"MEAN_MOTION_DDOT":0},{"OBJECT_NAME":"STARLINK-36921","OBJECT_ID":"2026-040E","EPOCH":"2026-03-19T06:00:02.000160","MEAN_MOTION":15.80810169,"ECCENTRICITY":5.19e-5,"INCLINATION":97.2767,"RA_OF_ASC_NODE":27.1623,"ARG_OF_PERICENTER":107.448,"MEAN_ANOMALY":122.9878,"EPHEMERIS_TYPE":0,"CLASSIFICATION_TYPE":"U","NORAD_CAT_ID":68019,"ELEMENT_SET_NO":999,"REV_AT_EPOCH":396,"BSTAR":0.0003845777,"MEAN_MOTION_DOT":0.00074129,"MEAN_MOTION_DDOT":0},{"OBJECT_NAME":"STARLINK-36928","OBJECT_ID":"2026-040F","EPOCH":"2026-03-19T16:00:01.999584","MEAN_MOTION":15.80661267,"ECCENTRICITY":0.0001347,"INCLINATION":97.2795,"RA_OF_ASC_NODE":27.6009,"ARG_OF_PERICENTER":77.7744,"MEAN_ANOMALY":358.0416,"EPHEMERIS_TYPE":0,"CLASSIFICATION_TYPE":"U","NORAD_CAT_ID":68020,"ELEMENT_SET_NO":999,"REV_AT_EPOCH":403,"BSTAR":-0.011719,"MEAN_MOTION_DOT":-0.01941661,"MEAN_MOTION_DDOT":0},{"OBJECT_NAME":"STARLINK-36916","OBJECT_ID":"2026-040H","EPOCH":"2026-03-19T06:00:02.000160","MEAN_MOTION":15.80935505,"ECCENTRICITY":7.492e-5,"INCLINATION":97.2751,"RA_OF_ASC_NODE":27.1647,"ARG_OF_PERICENTER":136.2779,"MEAN_ANOMALY":102.7168,"EPHEMERIS_TYPE":0,"CLASSIFICATION_TYPE":"U","NORAD_CAT_ID":68022,"ELEMENT_SET_NO":999,"REV_AT_EPOCH":396,"BSTAR":-0.0019001354,"MEAN_MOTION_DOT":-0.00351725,"MEAN_MOTION_DDOT":0},{"OBJECT_NAME":"STARLINK-36871","OBJECT_ID":"2026-040J","EPOCH":"2026-03-19T16:00:01.999584","MEAN_MOTION":15.80001786,"ECCENTRICITY":0.0001371,"INCLINATION":97.2773,"RA_OF_ASC_NODE":27.6078,"ARG_OF_PERICENTER":86.8292,"MEAN_ANOMALY":5.8092,"EPHEMERIS_TYPE":0,"CLASSIFICATION_TYPE":"U","NORAD_CAT_ID":68023,"ELEMENT_SET_NO":999,"REV_AT_EPOCH":403,"BSTAR":-0.011922,"MEAN_MOTION_DOT":-0.01919566,"MEAN_MOTION_DDOT":0},{"OBJECT_NAME":"STARLINK-36891","OBJECT_ID":"2026-040K","EPOCH":"2026-03-19T16:00:01.999584","MEAN_MOTION":15.79945156,"ECCENTRICITY":0.0001535,"INCLINATION":97.2773,"RA_OF_ASC_NODE":27.61,"ARG_OF_PERICENTER":82.6683,"MEAN_ANOMALY":14.2038,"EPHEMERIS_TYPE":0,"CLASSIFICATION_TYPE":"U","NORAD_CAT_ID":68024,"ELEMENT_SET_NO":999,"REV_AT_EPOCH":403,"BSTAR":-0.011962,"MEAN_MOTION_DOT":-0.01920949,"MEAN_MOTION_DDOT":0},{"OBJECT_NAME":"STARLINK-36378","OBJECT_ID":"2026-040L","EPOCH":"2026-03-19T16:00:01.999584","MEAN_MOTION":15.79810818,"ECCENTRICITY":0.0001541,"INCLINATION":97.2794,"RA_OF_ASC_NODE":27.6161,"ARG_OF_PERICENTER":82.6965,"MEAN_ANOMALY":22.6461,"EPHEMERIS_TYPE":0,"CLASSIFICATION_TYPE":"U","NORAD_CAT_ID":68025,"ELEMENT_SET_NO":999,"REV_AT_EPOCH":398,"BSTAR":-0.011884,"MEAN_MOTION_DOT":-0.01899774,"MEAN_MOTION_DDOT":0},{"OBJECT_NAME":"STARLINK-36884","OBJECT_ID":"2026-040M","EPOCH":"2026-03-19T16:00:01.999584","MEAN_MOTION":15.80315252,"ECCENTRICITY":0.0001443,"INCLINATION":97.278,"RA_OF_ASC_NODE":27.6126,"ARG_OF_PERICENTER":63.2149,"MEAN_ANOMALY":38.1453,"EPHEMERIS_TYPE":0,"CLASSIFICATION_TYPE":"U","NORAD_CAT_ID":68026,"ELEMENT_SET_NO":999,"REV_AT_EPOCH":403,"BSTAR":-0.011905,"MEAN_MOTION_DOT":-0.01941289,"MEAN_MOTION_DDOT":0},{"OBJECT_NAME":"STARLINK-36940","OBJECT_ID":"2026-040N","EPOCH":"2026-03-19T16:00:01.999584","MEAN_MOTION":15.79128766,"ECCENTRICITY":0.0001934,"INCLINATION":97.2852,"RA_OF_ASC_NODE":27.6436,"ARG_OF_PERICENTER":93.8562,"MEAN_ANOMALY":61.9851,"EPHEMERIS_TYPE":0,"CLASSIFICATION_TYPE":"U","NORAD_CAT_ID":68027,"ELEMENT_SET_NO":999,"REV_AT_EPOCH":412,"BSTAR":-0.012248,"MEAN_MOTION_DOT":-0.01898581,"MEAN_MOTION_DDOT":0},{"OBJECT_NAME":"STARLINK-36253","OBJECT_ID":"2026-040P","EPOCH":"2026-03-19T16:00:01.999584","MEAN_MOTION":15.70532022,"ECCENTRICITY":0.0001823,"INCLINATION":97.2848,"RA_OF_ASC_NODE":27.3833,"ARG_OF_PERICENTER":96.9801,"MEAN_ANOMALY":178.6407,"EPHEMERIS_TYPE":0,"CLASSIFICATION_TYPE":"U","NORAD_CAT_ID":68028,"ELEMENT_SET_NO":999,"REV_AT_EPOCH":413,"BSTAR":-0.017623,"MEAN_MOTION_DOT":-0.01878732,"MEAN_MOTION_DDOT":0},{"OBJECT_NAME":"STARLINK-36944","OBJECT_ID":"2026-040Q","EPOCH":"2026-03-19T16:00:01.999584","MEAN_MOTION":15.7966529,"ECCENTRICITY":0.0001669,"INCLINATION":97.2779,"RA_OF_ASC_NODE":27.6152,"ARG_OF_PERICENTER":74.3134,"MEAN_ANOMALY":35.3231,"EPHEMERIS_TYPE":0,"CLASSIFICATION_TYPE":"U","NORAD_CAT_ID":68029,"ELEMENT_SET_NO":999,"REV_AT_EPOCH":403,"BSTAR":-0.011344,"MEAN_MOTION_DOT":-0.01813678,"MEAN_MOTION_DDOT":0},{"OBJECT_NAME":"STARLINK-36942","OBJECT_ID":"2026-040R","EPOCH":"2026-03-19T16:00:01.999584","MEAN_MOTION":15.79692777,"ECCENTRICITY":0.0001593,"INCLINATION":97.2796,"RA_OF_ASC_NODE":27.6199,"ARG_OF_PERICENTER":81.74,"MEAN_ANOMALY":32.0506,"EPHEMERIS_TYPE":0,"CLASSIFICATION_TYPE":"U","NORAD_CAT_ID":68030,"ELEMENT_SET_NO":999,"REV_AT_EPOCH":403,"BSTAR":-0.011916,"MEAN_MOTION_DOT":-0.01895431,"MEAN_MOTION_DDOT":0},{"OBJECT_NAME":"STARLINK-36913","OBJECT_ID":"2026-040S","EPOCH":"2026-03-19T16:00:01.999584","MEAN_MOTION":15.79661565,"ECCENTRICITY":0.0001787,"INCLINATION":97.28,"RA_OF_ASC_NODE":27.6213,"ARG_OF_PERICENTER":80.2138,"MEAN_ANOMALY":37.775,"EPHEMERIS_TYPE":0,"CLASSIFICATION_TYPE":"U","NORAD_CAT_ID":68031,"ELEMENT_SET_NO":999,"REV_AT_EPOCH":403,"BSTAR":-0.01211,"MEAN_MOTION_DOT":-0.0191996,"MEAN_MOTION_DDOT":0},{"OBJECT_NAME":"STARLINK-36935","OBJECT_ID":"2026-040T","EPOCH":"2026-03-19T16:00:01.999584","MEAN_MOTION":15.79234521,"ECCENTRICITY":0.0002038,"INCLINATION":97.2797,"RA_OF_ASC_NODE":27.6365,"ARG_OF_PERICENTER":82.1174,"MEAN_ANOMALY":65.3399,"EPHEMERIS_TYPE":0,"CLASSIFICATION_TYPE":"U","NORAD_CAT_ID":68032,"ELEMENT_SET_NO":999,"REV_AT_EPOCH":412,"BSTAR":-0.01211,"MEAN_MOTION_DOT":-0.01887938,"MEAN_MOTION_DDOT":0}]
