STARLINK-36923          
1 68016U 26040B   26078.25002315 -.01165610  00000+0 -67000-2 0  9990
2 68016  97.2757  27.1561 0000723 120.7559  96.7831 15.81185323  3962
STARLINK-36568          
1 68017U 26040C   26078.66668981 -.01943000  00000+0 -12149-1 0  9993
2 68017  97.2779  27.5993 0001203  73.9538 357.1893 15.79899029  4033
STARLINK-36930          
1 68018U 26040D   26078.66668981 -.01926008  00000+0 -11976-1 0  9990
2 68018  97.2777  27.5959 0001484  93.9192 328.7949 15.79986778  4037
STARLINK-36921          
1 68019U 26040E   26078.25002315  .00074129  00000+0  38458-3 0  9990
2 68019  97.2767  27.1623 0000519 107.4480 122.9878 15.80810169  3968
STARLINK-36928          
1 68020U 26040F   26078.66668981 -.01941661  00000+0 -11719-1 0  9990
2 68020  97.2795  27.6009 0001347  77.7744 358.0416 15.80661267  4038
STARLINK-36916          
1 68022U 26040H   26078.25002315 -.00351725  00000+0 -19001-2 0  9998
2 68022  97.2751  27.1647 0000749 136.2779 102.7168 15.80935505  3967
STARLINK-36871          
1 68023U 26040J   26078.66668981 -.01919566  00000+0 -11922-1 0  9998
2 68023  97.2773  27.6078 0001371  86.8292   5.8092 15.80001786  4030
STARLINK-36891          
1 68024U 26040K   26078.66668981 -.01920949  00000+0 -11962-1 0  9990
2 68024  97.2773  27.6100 0001535  82.6683  14.2038 15.79945156  4037
STARLINK-36378          
1 68025U 26040L   26078.66668981 -.01899774  00000+0 -11884-1 0  9995
2 68025  97.2794  27.6161 0001541  82.6965  22.6461 15.79810818  3980
STARLINK-36884          
1 68026U 26040M   26078.66668981 -.01941289  00000+0 -11905-1 0  9999
2 68026  97.2780  27.6126 0001443  63.2149  38.1453 15.80315252  4031
STARLINK-36940          
1 68027U 26040N   26078.66668981 -.01898581  00000+0 -12248-1 0  9997
2 68027  97.2852  27.6436 0001934  93.8562  61.9851 15.79128766  4125
STARLINK-36253          
1 68028U 26040P   26078.66668981 -.01878732  00000+0 -17623-1 0  9996
2 68028  97.2848  27.3833 0001823  96.9801 178.6407 15.70532022  4135
STARLINK-36944          
1 68029U 26040Q   26078.66668981 -.01813678  00000+0 -11344-1 0  9999
2 68029  97.2779  27.6152 0001669  74.3134  35.3231 15.79665290  4039
STARLINK-36942          
1 68030U 26040R   26078.66668981 -.01895431  00000+0 -11916-1 0  9993
2 68030  97.2796  27.6199 0001593  81.7400  32.0506 15.79692777  4034
STARLINK-36913          
1 68031U 26040S   26078.66668981 -.01919960  00000+0 -12110-1 0  9995
2 68031  97.2800  27.6213 0001787  80.2138  37.7750 15.79661565  4039
STARLINK-36935          
1 68032U 26040T   26078.66668981 -.01887938  00000+0 -12110-1 0  9995
2 68032  97.2797  27.6365 0002038  82.1174  65.3399 15.79234521  4128
